
O3B FM3                 
1 40079U 14038A   25029.78124080 -.00000012  00000+0  00000+0 0  9996
2 40079   0.0442 359.4311 0004998 300.9945  59.5208  5.00114767187868
O3B FM7                 
1 40080U 14038B   25029.72742092 -.00000012  00000+0  00000+0 0  9991
2 40080   0.0398   0.1605 0001598 346.1642  13.6667  5.00115274192685
O3B FM6                 
1 40081U 14038C   25029.75453632 -.00000012  00000+0  00000+0 0  9994
2 40081   0.0445   0.8631 0002852 312.5822  46.5267  5.00115510192646
O3B FM8                 
1 40082U 14038D   25029.80800042 -.00000012  00000+0  00000+0 0  9992
2 40082   0.0434   0.8092 0002732 309.5882  49.5744  5.00115619192750
ORBCOMM FM109           
1 40086U 14040A   25029.48582422  .00002046  00000+0  48000-3 0  9996
2 40086  47.0039 311.1741 0001459  45.0382 315.0621 14.57744556560829
ORBCOMM FM107           
1 40087U 14040B   25030.13727362  .00001677  00000+0  39965-3 0  9994
2 40087  47.0055 309.1099 0001442 353.4402   6.6464 14.57809857561030
NAVSTAR 71 (USA 256)    
1 40105U 14045A   25029.48322379  .00000008  00000+0  00000+0 0  9996
2 40105  55.0398 108.5647 0029168 118.6011 241.7427  2.00551667 75974
ASIASAT 8 (AMOS-7)      
1 40107U 14046A   25029.82487101 -.00000025  00000+0  00000+0 0  9992
2 40107   0.0126  79.7426 0001914 242.4316 100.1720  1.00271677 97092
YAOGAN-20 01A           
1 40109U 14047A   25030.16797517 -.00000007  00000+0  98874-4 0  9990
2 40109  63.3811 235.4870 0346190  12.1191 348.7901 13.45367867514805
YAOGAN-20 01B           
1 40110U 14047B   25029.94613604 -.00000027  00000+0  74670-4 0  9990
2 40110  63.3811 236.9298 0346029  12.1438 348.7666 13.45366563514576
YAOGAN-20 01C           
1 40111U 14047C   25029.94059270 -.00000028  00000+0  73858-4 0  9992
2 40111  63.3803 236.6875 0346149  12.4917 348.4420 13.45376273514589
WORLDVIEW-3 (WV-3)      
1 40115U 14048A   25029.90948966  .00002454  00000+0  29372-3 0  9997
2 40115  97.8537 106.1242 0006007 182.9150 177.2031 14.85030823567213
GAOFEN-2                
1 40118U 14049A   25030.15922992  .00002455  00000+0  32693-3 0  9992
2 40118  98.0804  88.0406 0006698  53.6707 306.5122 14.80592746564817
BRITE-PL2 (HEWELIUSZ)   
1 40119U 14049B   25029.24599167  .00005082  00000+0  51312-3 0  9993
2 40119  97.8854 134.3790 0014664 343.9163  16.1588 14.91431881566337
GSAT0201 (GALILEO 5)    
1 40128U 14050A   25025.15168119 -.00000042  00000+0  00000+0 0  9996
2 40128  49.4245 294.1185 1618343 159.8026 207.4594  1.85519709 70836
GSAT0202 (GALILEO 6)    
1 40129U 14050B   25022.71418738 -.00000064  00000+0  00000+0 0  9995
2 40129  49.4430 293.2969 1617839 160.5034 206.5159  1.85520080 71012
LING QIAO               
1 40136U 14051A   25030.11711167  .00000178  00000+0  85971-4 0  9999
2 40136  98.6850  27.1310 0020385 204.7686 155.2519 14.30121231543139
CHUANGXIN 1-04 (CX-1-04)
1 40137U 14051B   25030.19132994  .00000249  00000+0  11322-3 0  9990
2 40137  98.6851  27.1529 0021875 206.2153 153.7924 14.30210809543126
ASIASAT 6               
1 40141U 14052A   25028.94945119 -.00000352  00000+0  00000+0 0  9990
2 40141   0.0167 286.8973 0000582  20.7898 282.4842  1.00267817 38012
YAOGAN-21               
1 40143U 14053A   25030.14101269  .00013933  00000+0  57699-3 0  9996
2 40143  97.2213  86.2415 0015564  81.2840 279.0160 15.23917836578378
OPTUS 10                
1 40146U 14054A   25028.43595877 -.00000136  00000+0  00000+0 0  9993
2 40146   0.0341  81.6391 0001568 271.5916  87.6427  1.00270445 38068
MEASAT-3B               
1 40147U 14054B   25027.83035551 -.00000228  00000+0  00000+0 0  9997
2 40147   0.0347  44.1653 0002482 317.7048 155.8606  1.00269203 37847
LUCH (OLYMP-K 1)        
1 40258U 14058A   25029.82200396 -.00000133  00000+0  00000+0 0  9991
2 40258   0.5902  88.8044 0004394 237.4416  80.8651  1.00271644 35940
SJ-11-07                
1 40261U 14059A   25030.18176025  .00001380  00000+0  27942-3 0  9990
2 40261  98.0495 108.0988 0009726 297.4228  62.5984 14.62803775551369
HIMAWARI-8              
1 40267U 14060A   25029.63921218 -.00000267  00000+0  00000+0 0  9994
2 40267   0.0164 116.1093 0000658 215.9433 167.8802  1.00269034 37714
IRNSS-1C                
1 40269U 14061A   25030.12760628 -.00000156  00000+0  00000+0 0  9996
2 40269   5.2371  99.3792 0018231   1.1326 158.0273  1.00271788 37783
INTELSAT 30 (IS-30)     
1 40271U 14062A   25023.44807477 -.00000124  00000+0  00000+0 0  9996
2 40271   0.0100  43.2886 0001545  83.3962  62.5665  1.00236074  1671
ARSAT 1                 
1 40272U 14062B   25029.09684897 -.00000249  00000+0  00000+0 0  9991
2 40272   0.0534 278.0584 0001262  29.4879 144.0910  1.00271276 37569
YAOGAN-22               
1 40275U 14063A   25029.79868502 -.00000015  00000+0  82071-4 0  9993
2 40275 100.6913 169.4801 0006008 241.0059 119.0450 13.15501820493624
EXPRESS-AM6             
1 40277U 14064A   25029.83607859  .00000106  00000+0  00000+0 0  9994
2 40277   0.0190  84.0103 0001157 263.8079 135.4951  1.00271648 36531
SJ-11-08                
1 40286U 14066A   25030.18068751  .00001806  00000+0  34609-3 0  9992
2 40286  98.2785 163.9926 0012483  14.8157 345.3408 14.64974918547546
NAVSTAR 72 (USA 258)    
1 40294U 14068A   25029.35988427 -.00000015  00000+0  00000+0 0  9997
2 40294  56.6114  50.4342 0054901  63.9765 296.6507  2.00574189 75101
MERIDIAN 7              
1 40296U 14069A   25029.70457230  .00000165  00000+0  00000+0 0  9997
2 40296  63.5052 268.3944 6900326 272.9233  16.8113  2.00592060 75123
ASNARO                  
1 40298U 14070A   25030.19892335  .00018467  00000+0  86349-3 0  9993
2 40298  97.3913 113.3446 0005793 133.9132 226.2582 15.19808351567641
HODOYOSHI-1             
1 40299U 14070B   25030.16650301  .00198583  00000+0  82556-3 0  9990
2 40299  97.0972  97.4909 0003552 266.7896  93.2969 15.85223618570547
YAOGAN-24               
1 40310U 14072A   25029.92547489  .00002233  00000+0  32913-3 0  9998
2 40310  98.0785 160.1697 0012736  84.6851 275.5812 14.76310443549470
COSMOS 2501 [GLONASS-K] 
1 40315U 14075A   25029.78542151  .00000089  00000+0  00000+0 0  9996
2 40315  63.6182 207.8064 0019192 203.5258 156.3898  2.13101319 79125
GSAT-16                 
1 40332U 14078A   25030.12230656  .00000093  00000+0  00000+0 0  9997
2 40332   0.0653  97.5876 0003106 349.1280 141.9094  1.00271121 37213
DIRECTV 14              
1 40333U 14078B   25029.52009902 -.00000116  00000+0  00000+0 0  9995
2 40333   0.0201 339.4302 0000416 192.2269  45.3499  1.00272332 37008
CBERS 4                 
1 40336U 14079A   25030.13984411  .00000322  00000+0  12657-3 0  9998
2 40336  98.3727  98.2199 0001573  64.9805 295.1544 14.35498446531805
YAOGAN-25 01A           
1 40338U 14080A   25030.15305214 -.00000052  00000+0  47836-4 0  9991
2 40338  63.3908 166.2903 0322042   6.8335 353.6927 13.45342579498171
YAOGAN-25 01B           
1 40339U 14080B   25030.14814125 -.00000060  00000+0  37764-4 0  9995
2 40339  63.3916 166.4386 0322309   6.6818 353.8352 13.45358821498179
YAOGAN-25 01C           
1 40340U 14080C   25030.14708708 -.00000064  00000+0  32226-4 0  9998
2 40340  63.3898 166.7957 0321955   7.3157 353.2404 13.45359282498159
YAMAL 401               
1 40345U 14082A   25028.17549427 -.00000217  00000+0  00000+0 0  9996
2 40345   0.0221 119.9656 0000376 267.5542 253.2614  1.00274387 36854
O3B FM10                
1 40348U 14083A   25026.23636469 -.00000013  00000+0  00000+0 0  9992
2 40348   0.0526 356.4438 0002701 310.5368  52.9916  5.00114812184527
O3B FM11                
1 40349U 14083B   25029.64775699 -.00000012  00000+0  00000+0 0  9999
2 40349   0.0500 351.6742 0005903 345.1720  23.1229  5.00115515184728
O3B FM12                
1 40350U 14083C   25030.07479193 -.00000012  00000+0  00000+0 0  9990
2 40350   0.0496 352.9919 0002832 322.0016  44.9792  5.00115725184903
O3B FM9                 
1 40351U 14083D   25024.70445001 -.00000013  00000+0  00000+0 0  9996
2 40351   0.0498 350.7644 0002676 315.8360  53.3722  5.00115400184632
COSMOS 2502             
1 40358U 14086A   25030.12420383  .00000099  00000+0  12364-3 0  9998
2 40358  67.1517 151.9776 0008170 268.5309  91.4840 13.97721181515359
RESURS-P 2              
1 40360U 14087A   25030.18765896  .00544036  15935-3  52829-3 0  9990
2 40360  97.1141 129.2551 0001622 245.3740 114.7376 16.11631499566792
YAOGAN-26               
1 40362U 14088A   25030.16272967  .00018465  00000+0  68398-3 0  9996
2 40362  97.0704  44.6995 0008520  73.0924 287.1250 15.27657271561887
ASTRA 2G                
1 40364U 14089A   25028.61546657  .00000161  00000+0  00000+0 0  9992
2 40364   0.0546 328.4590 0002962  53.5438 355.8814  1.00274952 36904
FENGYUN 2G              
1 40367U 14090A   25029.87050456 -.00000296  00000+0  00000+0 0  9993
2 40367   4.3569  78.9345 0001213 124.1622 339.0561  1.00278396 36956
MUOS-3                  
1 40374U 15002A   25029.82252524 -.00000120  00000+0  00000+0 0  9996
2 40374   3.5997  39.1296 0056193 184.4741 186.3068  1.00270588 36547
SMAP                    
1 40376U 15003A   25029.96817540  .00001328  00000+0  26633-3 0  9993
2 40376  98.1295  39.1501 0001660  87.9354 272.2038 14.63320108534020
INMARSAT 5-F2           
1 40384U 15005A   25028.81429883 -.00000275  00000+0  00000+0 0  9993
2 40384   0.0210  79.5647 0000327 247.9423  38.9366  1.00271488 36628
COSMOS 2503             
1 40420U 15009A   25029.54299873  .00002989  00000+0  21911-3 0  9994
2 40420  97.9018  71.3907 0017513 150.6988 209.5223 15.04211094543155
ABS-3A                  
1 40424U 15010A   25028.82481137 -.00000016  00000+0  00000+0 0  9998
2 40424   0.0181  75.0768 0001531 177.6576 169.5165  1.00269394 36318
